OBJECT_NAME,OBJECT_ID,EPOCH,MEAN_MOTION,ECCENTRICITY,INCLINATION,RA_OF_ASC_NODE,ARG_OF_PERICENTER,MEAN_ANOMALY,EPHEMERIS_TYPE,CLASSIFICATION_TYPE,NORAD_CAT_ID,ELEMENT_SET_NO,REV_AT_EPOCH,BSTAR,MEAN_MOTION_DOT,MEAN_MOTION_DDOT
MANDRAKE 2 ABLE,2021-059AE,2026-05-12T19:52:09.439392,15.53549109,.0006278,97.7048,319.9570,117.7142,242.4747,0,U,48907,999,27163,.23011E-3,.14546E-3,0
MANDRAKE 2 BAKER,2021-059AF,2026-05-12T19:04:10.911072,15.57755808,.0004853,97.7024,322.5566,115.6682,244.5075,0,U,48908,999,27178,.23261E-3,.17172E-3,0
PACE-1,2021-059AG,2026-05-12T19:23:52.401696,15.74432113,.0002886,97.6805,327.1195,100.4679,259.6910,0,U,48909,999,27222,.33487E-3,.48494E-3,0
YAM-3,2021-059AN,2026-05-12T18:37:25.555008,15.47756160,.000656,97.6997,317.4419,118.6151,241.5759,0,U,48915,999,27151,.1525E-3,.7807E-4,0
FARADAY_PHOENIX,2021-059AX,2026-05-12T19:23:34.039968,15.70599123,.000519,97.6857,327.1395,110.7641,249.4177,0,U,48924,999,27209,.55174E-3,.68219E-3,0
DEMO8 (TENZING),2021-059CA,2026-05-12T18:25:15.837888,15.53628870,.000826,97.7045,323.5283,113.1655,247.0468,0,U,48951,999,27180,.21944E-3,.13914E-3,0
NAPA-2,2021-059CN,2026-05-12T20:33:21.893760,15.84946530,.0002136,97.6781,327.4007,125.2971,234.8498,0,U,48963,999,27219,.50695E-3,.119204E-2,0
FENGYUN 3E,2021-062A,2026-05-12T21:32:42.762624,14.19900869,.0001758,98.7505,136.6991,148.3011,211.8272,0,U,49008,999,25157,-.51387E-4,-.153E-5,0
ISS (NAUKA),2021-066A,2026-05-12T20:15:17.010432,15.49198654,.000751,51.6312,115.0561,52.2723,307.8945,0,U,49044,999,56642,.98361E-4,.501E-4,0
STARLINK-3100,2021-082Q,2026-05-12T17:22:54.651360,14.98339637,.0003631,69.9984,132.9914,266.9329,93.1414,0,U,49144,999,25557,.49336E-4,.496E-5,0
CUTE,2021-088D,2026-05-12T18:43:00.759360,15.78491621,.0001596,97.4190,229.0724,275.6751,84.4333,0,U,49263,999,25694,.76236E-3,.13339E-2,0
2021-091B,2021-091B,2026-05-12T20:53:10.565088,15.18366482,.0013761,97.4485,320.9878,157.2475,202.9371,0,U,49316,999,25362,.7826E-4,.1543E-4,0
SDGSAT 1,2021-100A,2026-05-12T21:00:28.213056,15.19739406,.0009631,97.2666,181.1326,62.7990,297.4226,0,U,49387,999,25055,.67028E-4,.1368E-4,0
TEIKYOSAT-4 (OORURI),2021-102B,2026-05-12T07:45:18.914976,15.09376462,.0013541,97.3699,163.1995,60.9839,299.2745,0,U,49396,999,24731,.67519E-4,.1019E-4,0
Z-SAT,2021-102E,2026-05-12T20:50:48.643584,15.17985294,.001709,97.3362,169.2661,17.1090,343.0717,0,U,49399,999,24808,.33054E-4,.608E-5,0
HIBARI,2021-102F,2026-05-12T20:24:58.721760,15.31002023,.0010397,97.3271,179.1714,333.7654,26.3059,0,U,49400,999,24878,.22138E-3,.6564E-4,0
KOSEN-1,2021-102H,2026-05-12T08:26:57.818112,15.26331816,.0012843,97.3221,175.2138,341.4949,18.5820,0,U,49402,999,24855,.17377E-3,.445E-4,0
GLOBAL-14,2021-106A,2026-05-12T07:36:28.082016,15.48881737,.0014186,42.0034,143.9591,138.6716,221.5203,0,U,49469,999,25256,.25464E-3,.13843E-3,0
GAOFEN-3 02,2021-109A,2026-05-12T20:58:54.388704,14.42211733,.0004013,98.4104,141.4718,92.5276,267.6373,0,U,49495,999,23522,-.34482E-4,-.157E-5,0
GLOBAL-12,2021-115BA,2026-05-12T20:39:00.974016,15.51673376,.0002183,53.1951,214.1270,327.0344,33.0530,0,U,49772,999,25041,.31596E-3,.18695E-3,0
GLOBAL-13,2021-115BB,2026-05-12T08:31:13.270080,15.44769452,.0003178,53.1970,224.7426,25.5296,334.5868,0,U,49773,999,25022,.23386E-3,.10705E-3,0
GLOBAL-17,2021-120A,2026-05-12T17:51:00.834624,15.50484067,.0013091,41.9955,260.1915,358.9328,1.1486,0,U,49949,999,24939,.31702E-3,.18336E-3,0
GLOBAL-16,2021-120B,2026-05-12T18:37:40.503936,15.48579377,.0011336,41.9958,263.0995,348.8418,11.2172,0,U,49950,999,24935,.31061E-3,.16758E-3,0
XW-3 (CAS-9),2021-131B,2026-05-12T20:36:25.329600,14.41322463,.0003804,98.4954,225.4431,186.9938,173.1198,0,U,50466,999,23002,.97272E-4,.271E-5,0
ION SCV-004,2022-002K,2026-05-12T14:19:21.780768,15.30085037,.0009026,97.2862,190.9291,116.2884,243.9285,0,U,50993,999,23985,.12015E-3,.3427E-4,0
ETV-A1,2022-002CE,2026-05-12T20:49:02.687808,15.39925369,.0006868,97.2900,199.2915,110.4561,249.7423,0,U,51060,999,24040,.18771E-3,.7393E-4,0
BRO-5,2022-002CF,2026-05-12T20:29:26.801952,15.45472919,.000658,97.3015,206.2623,100.3984,259.8007,0,U,51061,999,24079,.23593E-3,.11225E-3,0
LUDI TANCE 1-01A (L-SAR 01A),2022-007A,2026-05-12T21:17:17.670912,14.88413495,.0001609,97.8091,140.8098,90.4567,269.6834,0,U,51284,999,23322,.46257E-4,.374E-5,0
LUDI TANCE 1-01B (L-SAR 01B),2022-018A,2026-05-12T20:28:52.240224,14.88414199,.000159,97.8098,140.7723,92.9610,267.1789,0,U,51822,999,22845,.44706E-4,.36E-5,0
