MANDRAKE 2 ABLE         
1 48907U 21059AE  26132.82788703  .00014546  00000+0  23011-3 0  9991
2 48907  97.7048 319.9570 0006278 117.7142 242.4747 15.53549109271636
MANDRAKE 2 BAKER        
1 48908U 21059AF  26132.79457073  .00017172  00000+0  23261-3 0  9996
2 48908  97.7024 322.5566 0004853 115.6682 244.5075 15.57755808271781
PACE-1                  
1 48909U 21059AG  26132.80824539  .00048494  00000+0  33487-3 0  9996
2 48909  97.6805 327.1195 0002886 100.4679 259.6910 15.74432113272224
YAM-3                   
1 48915U 21059AN  26132.77599022  .00007807  00000+0  15250-3 0  9996
2 48915  97.6997 317.4419 0006560 118.6151 241.5759 15.47756160271516
FARADAY_PHOENIX         
1 48924U 21059AX  26132.80803287  .00068219  00000+0  55174-3 0  9994
2 48924  97.6857 327.1395 0005190 110.7641 249.4177 15.70599123272092
DEMO8 (TENZING)         
1 48951U 21059CA  26132.76754442  .00013914  00000+0  21944-3 0  9997
2 48951  97.7045 323.5283 0008260 113.1655 247.0468 15.53628870271809
NAPA-2                  
1 48963U 21059CN  26132.85650340  .00119204  00000+0  50695-3 0  9996
2 48963  97.6781 327.4007 0002136 125.2971 234.8498 15.84946530272196
FENGYUN 3E              
1 49008U 21062A   26132.89771716 -.00000153  00000+0 -51387-4 0  9990
2 49008  98.7505 136.6991 0001758 148.3011 211.8272 14.19900869251571
ISS (NAUKA)             
1 49044U 21066A   26132.84394688  .00005010  00000+0  98361-4 0  9996
2 49044  51.6312 115.0561 0007510  52.2723 307.8945 15.49198654566425
STARLINK-3100           
1 49144U 21082Q   26132.72424365  .00000496  00000+0  49336-4 0  9999
2 49144  69.9984 132.9914 0003631 266.9329  93.1414 14.98339637255577
CUTE                    
1 49263U 21088D   26132.77986990  .00133390  00000+0  76236-3 0  9997
2 49263  97.4190 229.0724 0001596 275.6751  84.4333 15.78491621256941
2021-091B               
1 49316U 21091B   26132.87026117  .00001543  00000+0  78260-4 0  9991
2 49316  97.4485 320.9878 0013761 157.2475 202.9371 15.18366482253624
SDGSAT 1                
1 49387U 21100A   26132.87532654  .00001368  00000+0  67028-4 0  9993
2 49387  97.2666 181.1326 0009631  62.7990 297.4226 15.19739406250557
TEIKYOSAT-4 (OORURI)    
1 49396U 21102B   26132.32313559  .00001019  00000+0  67519-4 0  9994
2 49396  97.3699 163.1995 0013541  60.9839 299.2745 15.09376462247317
Z-SAT                   
1 49399U 21102E   26132.86861856  .00000608  00000+0  33054-4 0  9994
2 49399  97.3362 169.2661 0017090  17.1090 343.0717 15.17985294248080
HIBARI                  
1 49400U 21102F   26132.85067965  .00006564  00000+0  22138-3 0  9992
2 49400  97.3271 179.1714 0010397 333.7654  26.3059 15.31002023248780
KOSEN-1                 
1 49402U 21102H   26132.35205808  .00004450  00000+0  17377-3 0  9990
2 49402  97.3221 175.2138 0012843 341.4949  18.5820 15.26331816248558
GLOBAL-14               
1 49469U 21106A   26132.31699169  .00013843  00000+0  25464-3 0  9992
2 49469  42.0034 143.9591 0014186 138.6716 221.5203 15.48881737252568
GAOFEN-3 02             
1 49495U 21109A   26132.87424061 -.00000157  00000+0 -34482-4 0  9999
2 49495  98.4104 141.4718 0004013  92.5276 267.6373 14.42211733235220
GLOBAL-12               
1 49772U 21115BA  26132.86042794  .00018695  00000+0  31596-3 0  9998
2 49772  53.1951 214.1270 0002183 327.0344  33.0530 15.51673376250419
GLOBAL-13               
1 49773U 21115BB  26132.35501470  .00010705  00000+0  23386-3 0  9996
2 49773  53.1970 224.7426 0003178  25.5296 334.5868 15.44769452250227
GLOBAL-17               
1 49949U 21120A   26132.74375966  .00018336  00000+0  31702-3 0  9998
2 49949  41.9955 260.1915 0013091 358.9328   1.1486 15.50484067249393
GLOBAL-16               
1 49950U 21120B   26132.77616324  .00016758  00000+0  31061-3 0  9993
2 49950  41.9958 263.0995 0011336 348.8418  11.2172 15.48579377249352
XW-3 (CAS-9)            
1 50466U 21131B   26132.85862650  .00000271  00000+0  97272-4 0  9993
2 50466  98.4954 225.4431 0003804 186.9938 173.1198 14.41322463230029
ION SCV-004             
1 50993U 22002K   26132.59677987  .00003427  00000+0  12015-3 0  9991
2 50993  97.2862 190.9291 0009026 116.2884 243.9285 15.30085037239852
ETV-A1                  
1 51060U 22002CE  26132.86739222  .00007393  00000+0  18771-3 0  9999
2 51060  97.2900 199.2915 0006868 110.4561 249.7423 15.39925369240406
BRO-5                   
1 51061U 22002CF  26132.85378243  .00011225  00000+0  23593-3 0  9998
2 51061  97.3015 206.2623 0006580 100.3984 259.8007 15.45472919240795
LUDI TANCE 1-01A (L-SA*)
1 51284U 22007A   26132.88701008  .00000374  00000+0  46257-4 0  9998
2 51284  97.8091 140.8098 0001609  90.4567 269.6834 14.88413495233220
LUDI TANCE 1-01B (L-SA*)
1 51822U 22018A   26132.85338241  .00000360  00000+0  44706-4 0  9992
2 51822  97.8098 140.7723 0001590  92.9610 267.1789 14.88414199228457
